*******************************************************************************
JPL/HORIZONS               3757 Anagolay (1982 XB)         2023-Sep-04 11:25:22
Rec #:    3757 (+COV) Soln.date: 2023-May-13_06:33:13    # obs: 198 (1982-2023)
 
IAU76/J2000 helio. ecliptic osc. elements (au, days, deg., period=Julian yrs):
 
  EPOCH=  2457227.5 ! 2015-Jul-24.00 (TDB)         Residual RMS= .2953
   EC= .4456088645169292   QR= 1.017169791085908   TP= 2457136.7529945229
   OM= 74.97613541570105   W=  17.17786033181915   IN= 3.868069860539226
   A= 1.834751181942318    MA= 35.98906903928089   ADIST= 2.652332572798728
   PER= 2.48527            N= .39658685            ANGMOM= .020859484
   DAN= 1.03135            DDN= 2.56053            L= 92.11716079999999
   B= 1.1415994            MOID= .0374502          TP= 2015-Apr-24.2529945229
 
Asteroid physical parameters (km, seconds, rotational period in hours):
   GM= n.a.                RAD= .250               ROTPER= 9.012
   H= 19.04                G= .150                 B-V= .859
                           ALBEDO= .180            STYP= S

ASTEROID comments: 
1: soln ref.= JPL#54, PHA  OCC=0       radar( 0 delay, 2 Dop.)
2: source=ORB
*******************************************************************************


*******************************************************************************
Ephemeris / API_USER Mon Sep  4 11:25:22 2023 Pasadena, USA      / Horizons
*******************************************************************************
Target body name: 3757 Anagolay (1982 XB)         {source: JPL#54}
Center body name: Solar System Barycenter (0)     {source: DE441}
Center-site name: BODY CENTER
*******************************************************************************
Start time      : A.D. 2023-Aug-12 00:00:00.0000 TDB
Stop  time      : A.D. 2023-Aug-13 00:00:00.0000 TDB
Step-size       : 2880 minutes
*******************************************************************************
Center geodetic : 0.0, 0.0, 0.0                   {E-lon(deg),Lat(deg),Alt(km)}
Center cylindric: 0.0, 0.0, 0.0                   {E-lon(deg),Dxy(km),Dz(km)}
Center radii    : (undefined)
Small perturbers: Yes                             {source: SB441-N16}
Output units    : KM-S
Calendar mode   : Mixed Julian/Gregorian
Output type     : GEOMETRIC cartesian states
Output format   : 2 (position and velocity)
Reference frame : Ecliptic of J2000.0
*******************************************************************************
Initial IAU76/J2000 heliocentric ecliptic osculating elements (au, days, deg.):
  EPOCH=  2457227.5 ! 2015-Jul-24.00 (TDB)         Residual RMS= .2953         
   EC= .4456088645169292   QR= 1.017169791085908   TP= 2457136.7529945229      
   OM= 74.97613541570105   W=  17.17786033181915   IN= 3.868069860539226       
  Equivalent ICRF heliocentric cartesian coordinates (au, au/d):
   X=-1.388028045722342E+00  Y= 6.813585578209594E-02  Z= 1.305199462575513E-01
  VX=-7.480450781726379E-03 VY=-1.328490693278702E-02 VZ=-5.501938268667884E-03
Asteroid physical parameters (km, seconds, rotational period in hours):        
   GM= n.a.                RAD= .250               ROTPER= 9.012               
   H= 19.04                G= .150                 B-V= .859                   
                           ALBEDO= .180            STYP= S                     
*******************************************************************************
JDTDB
   X     Y     Z
   VX    VY    VZ
*******************************************************************************
$$SOE
2460168.500000000 = A.D. 2023-Aug-12 00:00:00.0000 TDB 
 X =-1.495748135873699E+08 Y =-3.358898398187588E+08 Z = 3.811029244075537E+06
 VX= 1.150089844209241E+01 VY=-1.035111026918012E+01 VZ=-9.318198189458125E-01
$$EOE
*******************************************************************************
 
TIME

  Barycentric Dynamical Time ("TDB" or T_eph) output was requested. This
continuous coordinate time is equivalent to the relativistic proper time
of a clock at rest in a reference frame co-moving with the solar system
barycenter but outside the system's gravity well. It is the independent
variable in the solar system relativistic equations of motion.

  TDB runs at a uniform rate of one SI second per second and is independent
of irregularities in Earth's rotation.
 
CALENDAR SYSTEM

  Mixed calendar mode was active such that calendar dates after AD 1582-Oct-15
(if any) are in the modern Gregorian system. Dates prior to 1582-Oct-5 (if any)
are in the Julian calendar system, which is automatically extended for dates
prior to its adoption on 45-Jan-1 BC.  The Julian calendar is useful for
matching historical dates. The Gregorian calendar more accurately corresponds
to the Earth's orbital motion and seasons. A "Gregorian-only" calendar mode is
available if such physical events are the primary interest.

REFERENCE FRAME AND COORDINATES

  Ecliptic at the standard reference epoch

    Reference epoch: J2000.0
    X-Y plane: adopted Earth orbital plane at the reference epoch
               Note: IAU76 obliquity of 84381.448 arcseconds wrt ICRF X-Y plane
    X-axis   : ICRF
    Z-axis   : perpendicular to the X-Y plane in the directional (+ or -) sense
               of Earth's north pole at the reference epoch.

  Symbol meaning:

    JDTDB    Julian Day Number, Barycentric Dynamical Time
      X      X-component of position vector (km)
      Y      Y-component of position vector (km)
      Z      Z-component of position vector (km)
      VX     X-component of velocity vector (km/sec)                           
      VY     Y-component of velocity vector (km/sec)                           
      VZ     Z-component of velocity vector (km/sec)                           

ABERRATIONS AND CORRECTIONS

 Geometric state vectors have NO corrections or aberrations applied.

Computations by ...

    Solar System Dynamics Group, Horizons On-Line Ephemeris System
    4800 Oak Grove Drive, Jet Propulsion Laboratory
    Pasadena, CA  91109   USA

    General site: https://ssd.jpl.nasa.gov/
    Mailing list: https://ssd.jpl.nasa.gov/email_list.html
    System news : https://ssd.jpl.nasa.gov/horizons/news.html
    User Guide  : https://ssd.jpl.nasa.gov/horizons/manual.html
    Connect     : browser        https://ssd.jpl.nasa.gov/horizons/app.html#/x
                  API            https://ssd-api.jpl.nasa.gov/doc/horizons.html
                  command-line   telnet ssd.jpl.nasa.gov 6775
                  e-mail/batch   https://ssd.jpl.nasa.gov/ftp/ssd/hrzn_batch.txt
                  scripts        https://ssd.jpl.nasa.gov/ftp/ssd/SCRIPTS
    Author      : Jon.D.Giorgini@jpl.nasa.gov
*******************************************************************************
